IRIDIUM 144             
1 43249U 18030A   24317.57045233  .00000546  00000+0  18790-3 0  9992
2 43249  86.4001 173.5206 0002159  78.8844 281.2595 14.34222113346775
IRIDIUM 149             
1 43250U 18030B   24317.57679905  .00000484  00000+0  16584-3 0  9993
2 43250  86.4005 173.4917 0001789  80.3501 279.7897 14.34216287346799
IRIDIUM 157             
1 43251U 18030C   24317.52605213  .00000572  00000+0  19725-3 0  9998
2 43251  86.4006 173.5531 0001857  88.2495 271.8913 14.34222053346766
IRIDIUM 140             
1 43252U 18030D   24317.54508448  .00000728  00000+0  25283-3 0  9992
2 43252  86.4004 173.5593 0002130  85.0207 275.1232 14.34221070346820
IRIDIUM 145             
1 43253U 18030E   24317.53240021  .00000539  00000+0  18545-3 0  9995
2 43253  86.4004 173.5371 0002142  72.4604 287.6826 14.34213461346753
IRIDIUM 146             
1 43254U 18030F   24317.58314803  .00000882  00000+0  30773-3 0  9999
2 43254  86.4005 173.5311 0002007  72.8993 287.2422 14.34219053346777
IRIDIUM 148             
1 43255U 18030G   24317.55142250  .00000657  00000+0  22749-3 0  9996
2 43255  86.4005 173.5783 0001918  81.1224 279.0189 14.34222923346804
IRIDIUM 142             
1 43256U 18030H   24317.58948464  .00000727  00000+0  25268-3 0  9998
2 43256  86.4003 173.4729 0001868  71.4787 288.6612 14.34216532346774
